DELTA 2 R/B(1)          
1 20453U 90008B   26159.65977848  .00086092  00000+0  66851-3 0  9991
2 20453  35.6012 292.6520 0067076  33.1604 327.3315 15.67497220940361
COSMOS 2058             
1 20465U 90010A   26159.79679323  .00003339  00000+0  19289-3 0  9995
2 20465  82.4662 317.6304 0010304  29.0616 331.1185 15.11956725956007
SL-14 R/B               
1 20466U 90010B   26159.80492152  .00000359  00000+0  40447-4 0  9991
2 20466  82.5016 181.8170 0019831   4.3225 355.8157 14.83640988941993
SL-14 R/B               
1 20511U 90018B   26159.43782827  .00000401  00000+0  47288-4 0  9998
2 20511  82.5204 138.2856 0016880 148.7739 211.4482 14.82210533936028
HST                     
1 20580U 90037B   26158.29828937  .00006010  00000+0  18954-3 0  9990
2 20580  28.4712 148.1547 0001938  44.7656 315.3096 15.30642118787059
SL-16 R/B               
1 20625U 90046B   26159.60659709  .00000312  00000+0  18575-3 0  9993
2 20625  70.9983 106.9682 0014049 174.6705 185.4570 14.15021742861252
COSMOS 2084             
1 20663U 90055A   26159.76214552  .00002256  00000+0  16734-3 0  9999
2 20663  62.7910  24.8463 0005536 263.2209  96.8261 15.06082742950038
SL-6 R/B(2)             
1 20666U 90055D   26159.73834169  .00002007  00000+0  15700-3 0  9997
2 20666  62.7839 304.1262 0039317   3.9956 356.1450 15.03976322951883
SL-8 R/B                
1 20775U 90078B   26159.47753771  .00014745  00000+0  41476-3 0  9994
2 20775  82.9014 169.5116 0352799  67.7732 296.0510 14.91986865822825
SL-8 R/B                
1 21088U 91006B   26159.78368669  .00000052  00000+0  36109-4 0  9990
2 21088  82.9420 102.2849 0023324 136.9853 288.5439 13.77505331776612
OKEAN-3                 
1 21397U 91039A   26159.76297102  .00002218  00000+0  15289-3 0  9991
2 21397  82.5161 248.5501 0014582  27.5909 332.6088 15.05290085878732
COSMOS 2151             
1 21422U 91042A   26159.79022522  .00001336  00000+0  10397-3 0  9994
2 21422  82.4962 355.7853 0013742 109.1247 251.1467 15.00414533876857
SL-14 R/B               
1 21423U 91042B   26159.44252733  .00000404  00000+0  48082-4 0  9994
2 21423  82.4921 135.0961 0015710 306.3317  53.6446 14.81897004866518
ERS-1                   
1 21574U 91050A   26159.82390128  .00000253  00000+0  95773-4 0  9994
2 21574  98.7799 180.3175 0030773 292.7965  66.9972 14.39511870828843
ARIANE 40 R/B           
1 21610U 91050F   26159.72789096  .00000299  00000+0  10178-3 0  9995
2 21610  98.1878 208.4740 0003881 139.8562 220.2916 14.42952329832121
INTERCOSMOS 25          
1 21819U 91086A   26159.69328301  .00000590  00000+0  11763-3 0  9994
2 21819  82.6054 254.9493 1484331 280.7340  63.0552 12.12186461507715
SL-8 R/B                
1 21876U 92008B   26159.86004808  .00000079  00000+0  66284-4 0  9995
2 21876  82.9266 199.9788 0033421 238.6935 300.7974 13.75974601721956
SL-8 R/B                
1 21938U 92020B   26159.83317330  .00000050  00000+0  35773-4 0  9990
2 21938  82.9305  86.0621 0030184  45.2255   9.2134 13.75548069713664
USA 81                  
1 21949U 92023A   26159.82223733  .00000166  00000+0  54029-4 0  9990
2 21949  85.0077  78.8350 0002740  92.1618 267.9889 14.32396012107834
COSMOS 2219             
1 22219U 92076A   26159.77283432  .00000001  00000+0  25161-4 0  9998
2 22219  71.0575 187.6626 0016208  57.8985 302.3709 14.14095629731251
SL-16 R/B               
1 22220U 92076B   26159.77350904 -.00000204  00000+0 -77704-4 0  9996
2 22220  71.0007 356.5061 0014488 309.6549 130.3961 14.16871923734731
COSMOS 2221             
1 22236U 92080A   26159.51363657  .00001510  00000+0  13046-3 0  9996
2 22236  82.5034 192.0746 0012691 244.1747 115.8167 14.96512343794373
SL-16 R/B               
1 22285U 92093B   26159.76211182 -.00000141  00000+0 -48004-4 0  9990
2 22285  71.0201 173.0782 0004422 200.6469 159.4476 14.15464702726048
COSMOS 2228             
1 22286U 92094A   26159.80245292  .00002051  00000+0  17299-3 0  9997
2 22286  82.5168 150.0742 0017764   1.2371 358.8892 14.97556458789696
SL-16 R/B               
1 22566U 93016B   26159.81197021  .00000123  00000+0  87410-4 0  9991
2 22566  71.0079  23.7989 0010795 195.6165 164.4626 14.15309086715065
COSMOS 2242             
1 22626U 93024A   26159.75808510  .00001698  00000+0  14541-3 0  9994
2 22626  82.5178 179.6073 0016191   5.2078 354.9309 14.96879313794019
SL-16 R/B               
1 22803U 93059B   26159.80852905  .00000244  00000+0  14461-3 0  9999
2 22803  70.9883 178.9731 0015014  68.6325 291.6399 14.17244713692447
ARIANE 40 R/B           
1 22830U 93061H   26159.75618000  .00000201  00000+0  89363-4 0  9999
2 22830  98.4820 226.7882 0011000  21.2329 338.9309 14.32904525707143
COSMOS 2278             
1 23087U 94023A   26159.76018294  .00000374  00000+0  21978-3 0  9991
2 23087  71.0543 344.5575 0010595 252.8024 107.1939 14.14393335657686
SL-16 R/B               
1 23088U 94023B   26159.48292803  .00000198  00000+0  12663-3 0  9996
2 23088  70.9995 240.2108 0003330 195.7904 164.3115 14.15019606658938
SL-16 R/B               
1 23343U 94074B   26159.85030713  .00000404  00000+0  60670-4 0  9999
2 23343  97.6994 186.9183 0005151 288.7116 247.9591 14.79495303700720
SL-16 R/B               
1 23405U 94077B   26159.71173139 -.00000271  00000+0 -11405-3 0  9991
2 23405  70.9805 160.9936 0002642 332.4881  27.6102 14.15573224629113
ARIANE 40+ R/B          
1 23561U 95021B   26159.79412074  .00000267  00000+0  98790-4 0  9992
2 23561  98.4411 229.9901 0005919 220.7149 249.1926 14.39828963632352
SL-16 R/B               
1 23705U 95058B   26159.79378819 -.00000045  00000+0  13939-5 0  9998
2 23705  71.0215 348.9816 0013419 331.8124  28.2271 14.15505159580746
SL-16 R/B               
1 24298U 96051B   26159.81627647  .00000128  00000+0  96065-4 0  9990
2 24298  70.7634 342.3653 0014738 349.6242  10.4571 14.12443151534515
ORBVIEW 2 (SEASTAR)     
1 24883U 97037A   26159.44695804  .00000259  00000+0  10616-3 0  9996
2 24883  98.8682 326.2243 0002917 134.2669 225.8756 14.35549090521496
SL-16 R/B               
1 25400U 98043G   26159.80310199  .00000060  00000+0  43963-4 0  9993
2 25400  98.8360 113.8904 0010882 108.2440 251.9924 14.26067314451973
SL-16 R/B               
1 25407U 98045B   26159.83064810  .00000003  00000+0  25641-4 0  9991
2 25407  71.0122 349.9043 0009528 251.8928 108.1158 14.16204839440004
ISS (ZARYA)             
1 25544U 98067A   26159.80410962  .00007129  00000+0  13425-3 0  9999
2 25544  51.6336 341.5878 0006923 148.5365 211.6039 15.49672912570453
CZ-4B R/B               
1 25732U 99025C   26159.75278713  .00000058  00000+0  48351-4 0  9994
2 25732  98.6487 201.8033 0038233  83.2046  28.3236 14.18282081401073
OKEAN-O                 
1 25860U 99039A   26159.76392366  .00000672  00000+0  94657-4 0  9995
2 25860  97.9317 218.6581 0001814  78.0536 282.0879 14.80457847447866
SL-16 R/B               
1 25861U 99039B   26159.72602020  .00000516  00000+0  72045-4 0  9997
2 25861  97.9842 218.6129 0013968 326.5594  33.4736 14.81837274450340
DELTA 2 R/B             
1 25876U 99041E   26159.11557659  .00000878  00000+0  17901-3 0  9996
2 25876  51.7662 300.0336 0500945 255.1992  99.2946 14.12000165375800
HELIOS 1B               
1 25977U 99064A   26159.30223321  .00001514  00000+0  17140-3 0  9993
2 25977  98.1622  64.1847 0002353 104.3150 255.8327 14.87983530698730
TERRA                   
1 25994U 99068A   26159.81335137  .00000378  00000+0  85954-4 0  9997
2 25994  97.9459 209.6913 0000972 228.7766 264.5397 14.61096572408380
SL-16 R/B               
1 26070U 00006B   26159.72840242 -.00000230  00000+0 -92777-4 0  9995
2 26070  71.0032 266.4108 0015091  36.3041 323.9103 14.15836508361440
TITAN 4B R/B            
1 26474U 00047B   26159.78136375  .00003367  00000+0  20924-3 0  9995
2 26474  67.9873 144.2329 0045575 295.6148  64.0296 15.10149632406662
ENVISAT                 
1 27386U 02009A   26159.83462105  .00000090  00000+0  42982-4 0  9996
2 27386  98.3831 111.3395 0001320  90.3943 323.3946 14.39062931272286
IDEFIX & ARIANE 42P R/B 
1 27422U 02021B   26159.80941976  .00000216  00000+0  98607-4 0  9991
2 27422  98.5942  97.3834 0010624 281.4203  78.5787 14.31078338257052
AQUA                    
1 27424U 02022A   26159.84131861  .00000795  00000+0  16788-3 0  9993
2 27424  98.4272 128.9577 0001436  54.4030   1.9331 14.62145663282054
CZ-4B R/B               
1 27432U 02024C   26159.76198670  .00000040  00000+0  43270-4 0  9996
2 27432  98.8702 212.6365 0051064 123.6867 346.1420 14.14563149242116
MIDORI II (ADEOS-II)    
1 27597U 02056A   26159.80786403  .00000264  00000+0  12140-3 0  9994
2 27597  98.7874 118.9967 0002224  88.5931 271.5505 14.29345166223317
H-2A R/B                
1 27601U 02056E   26159.77816251  .00000215  00000+0  90302-4 0  9994
2 27601  98.3308 116.7594 0068909 250.0000 175.5320 14.33818663227165
CZ-4B R/B               
1 28059U 03049C   26159.49823670  .00000351  00000+0  92065-4 0  9996
2 28059  98.6896 157.9988 0047285 315.7011  44.0405 14.55094593199802
CZ-2C R/B               
1 28222U 04012C   26159.72716845  .00098208  00000+0  59095-3 0  9993
2 28222  97.7080 234.4175 0008823 321.5566  38.5070 15.77379087218563
SL-16 R/B               
1 28353U 04021B   26159.81727350 -.00000241  00000+0 -10052-3 0  9993
2 28353  71.0021  41.2554 0007483 264.7502  95.2767 14.14612006135722
CZ-4B R/B               
1 28415U 04035C   26159.82970554  .00008026  00000+0  27076-3 0  9995
2 28415  97.3375 192.9980 0030941   8.2010 351.9730 15.30503861193847
CZ-2C R/B               
1 28480U 04046B   26159.49701834  .00000080  00000+0  45413-4 0  9993
2 28480  98.1951  68.8204 0138149 246.1474 112.5178 14.27024795121458
ARIANE 5 R/B            
1 28499U 04049H   26159.44076786  .00000789  00000+0  92781-4 0  9998
2 28499  98.2717 331.3565 0084991  57.4922 303.4470 14.85436979159264
